[
  {
    "OBJECT_NAME": "STARLINK-5892",
    "OBJECT_ID": "23037AS",
    "EPOCH": "2025-11-11T02:47:54.586464",
    "MEAN_MOTION": 14.98334399,
    "ECCENTRICITY": 0.0002903,
    "INCLINATION": 69.9997,
    "RA_OF_ASC_NODE": 203.3562,
    "ARG_OF_PERICENTER": 271.5986,
    "MEAN_ANOMALY": 88.484,
    "EPHEMERIS_TYPE": 0,
    "CLASSIFICATION_TYPE": "U",
    "NORAD_CAT_ID": 55954,
    "ELEMENT_SET_NO": 999,
    "REV_AT_EPOCH": 14671,
    "BSTAR": 0.00012789,
    "MEAN_MOTION_DOT": 1.434e-05,
    "MEAN_MOTION_DDOT": 0.0,
    "TLE_LINE1": "1 55954U 23037AS  25315.11660401  .00001434  00000+0  12789-3 0  9999",
    "TLE_LINE2": "2 55954  69.9997 203.3562 0002903 271.5986  88.4840 14.98334399146716",
    "COMMENT": "Grouped by shell and plane from TLE"
  },
  {
    "OBJECT_NAME": "STARLINK-5878",
    "OBJECT_ID": "23037AT",
    "EPOCH": "2025-11-11T03:11:57.349824",
    "MEAN_MOTION": 14.98338394,
    "ECCENTRICITY": 0.0003265,
    "INCLINATION": 69.9992,
    "RA_OF_ASC_NODE": 203.4146,
    "ARG_OF_PERICENTER": 268.5971,
    "MEAN_ANOMALY": 91.4814,
    "EPHEMERIS_TYPE": 0,
    "CLASSIFICATION_TYPE": "U",
    "NORAD_CAT_ID": 55955,
    "ELEMENT_SET_NO": 999,
    "REV_AT_EPOCH": 14671,
    "BSTAR": 0.00028855,
    "MEAN_MOTION_DOT": 3.352e-05,
    "MEAN_MOTION_DDOT": 0.0,
    "TLE_LINE1": "1 55955U 23037AT  25315.13330266  .00003352  00000+0  28855-3 0  9997",
    "TLE_LINE2": "2 55955  69.9992 203.4146 0003265 268.5971  91.4814 14.98338394146717",
    "COMMENT": "Grouped by shell and plane from TLE"
  },
  {
    "OBJECT_NAME": "STARLINK-5883",
    "OBJECT_ID": "23037AU",
    "EPOCH": "2025-11-11T02:35:53.295936",
    "MEAN_MOTION": 14.98338013,
    "ECCENTRICITY": 0.0002643,
    "INCLINATION": 69.9994,
    "RA_OF_ASC_NODE": 203.3274,
    "ARG_OF_PERICENTER": 267.5223,
    "MEAN_ANOMALY": 92.5634,
    "EPHEMERIS_TYPE": 0,
    "CLASSIFICATION_TYPE": "U",
    "NORAD_CAT_ID": 55956,
    "ELEMENT_SET_NO": 999,
    "REV_AT_EPOCH": 14671,
    "BSTAR": 0.0001389,
    "MEAN_MOTION_DOT": 1.565e-05,
    "MEAN_MOTION_DDOT": 0.0,
    "TLE_LINE1": "1 55956U 23037AU  25315.10825574  .00001565  00000+0  13890-3 0  9993",
    "TLE_LINE2": "2 55956  69.9994 203.3274 0002643 267.5223  92.5634 14.98338013146719",
    "COMMENT": "Grouped by shell and plane from TLE"
  },
  {
    "OBJECT_NAME": "STARLINK-5884",
    "OBJECT_ID": "23037AV",
    "EPOCH": "2025-11-11T03:17:58.120800",
    "MEAN_MOTION": 14.98339206,
    "ECCENTRICITY": 0.0002389,
    "INCLINATION": 70.0003,
    "RA_OF_ASC_NODE": 203.4305,
    "ARG_OF_PERICENTER": 278.6239,
    "MEAN_ANOMALY": 81.4649,
    "EPHEMERIS_TYPE": 0,
    "CLASSIFICATION_TYPE": "U",
    "NORAD_CAT_ID": 55957,
    "ELEMENT_SET_NO": 999,
    "REV_AT_EPOCH": 14671,
    "BSTAR": 5.518800000000001e-05,
    "MEAN_MOTION_DOT": 5.66e-06,
    "MEAN_MOTION_DDOT": 0.0,
    "TLE_LINE1": "1 55957U 23037AV  25315.13747825  .00000566  00000+0  55188-4 0  9996",
    "TLE_LINE2": "2 55957  70.0003 203.4305 0002389 278.6239  81.4649 14.98339206146715",
    "COMMENT": "Grouped by shell and plane from TLE"
  },
  {
    "OBJECT_NAME": "STARLINK-5928",
    "OBJECT_ID": "23037AW",
    "EPOCH": "2025-11-11T03:05:56.219424",
    "MEAN_MOTION": 14.98337956,
    "ECCENTRICITY": 0.0003053,
    "INCLINATION": 69.9994,
    "RA_OF_ASC_NODE": 203.4005,
    "ARG_OF_PERICENTER": 269.6283,
    "MEAN_ANOMALY": 90.4526,
    "EPHEMERIS_TYPE": 0,
    "CLASSIFICATION_TYPE": "U",
    "NORAD_CAT_ID": 55958,
    "ELEMENT_SET_NO": 999,
    "REV_AT_EPOCH": 14671,
    "BSTAR": 0.00015411,
    "MEAN_MOTION_DOT": 1.747e-05,
    "MEAN_MOTION_DDOT": 0.0,
    "TLE_LINE1": "1 55958U 23037AW  25315.12912291  .00001747  00000+0  15411-3 0  9993",
    "TLE_LINE2": "2 55958  69.9994 203.4005 0003053 269.6283  90.4526 14.98337956146711",
    "COMMENT": "Grouped by shell and plane from TLE"
  },
  {
    "OBJECT_NAME": "STARLINK-5929",
    "OBJECT_ID": "23037AX",
    "EPOCH": "2025-11-11T02:59:56.157792",
    "MEAN_MOTION": 14.98337492,
    "ECCENTRICITY": 0.0002829,
    "INCLINATION": 69.9999,
    "RA_OF_ASC_NODE": 203.3847,
    "ARG_OF_PERICENTER": 266.4132,
    "MEAN_ANOMALY": 93.6704,
    "EPHEMERIS_TYPE": 0,
    "CLASSIFICATION_TYPE": "U",
    "NORAD_CAT_ID": 55959,
    "ELEMENT_SET_NO": 999,
    "REV_AT_EPOCH": 14671,
    "BSTAR": 0.0001588,
    "MEAN_MOTION_DOT": 1.803e-05,
    "MEAN_MOTION_DDOT": 0.0,
    "TLE_LINE1": "1 55959U 23037AX  25315.12495553  .00001803  00000+0  15880-3 0  9994",
    "TLE_LINE2": "2 55959  69.9999 203.3847 0002829 266.4132  93.6704 14.98337492146716",
    "COMMENT": "Grouped by shell and plane from TLE"
  },
  {
    "OBJECT_NAME": "STARLINK-5938",
    "OBJECT_ID": "23037AY",
    "EPOCH": "2025-11-11T03:18:12.082176",
    "MEAN_MOTION": 14.98338313,
    "ECCENTRICITY": 0.0002531,
    "INCLINATION": 69.9996,
    "RA_OF_ASC_NODE": 203.4124,
    "ARG_OF_PERICENTER": 272.4443,
    "MEAN_ANOMALY": 87.6426,
    "EPHEMERIS_TYPE": 0,
    "CLASSIFICATION_TYPE": "U",
    "NORAD_CAT_ID": 55960,
    "ELEMENT_SET_NO": 999,
    "REV_AT_EPOCH": 14671,
    "BSTAR": 9.1845e-05,
    "MEAN_MOTION_DOT": 1.003e-05,
    "MEAN_MOTION_DDOT": 0.0,
    "TLE_LINE1": "1 55960U 23037AY  25315.13763984  .00001003  00000+0  91845-4 0  9991",
    "TLE_LINE2": "2 55960  69.9996 203.4124 0002531 272.4443  87.6426 14.98338313146713",
    "COMMENT": "Grouped by shell and plane from TLE"
  },
  {
    "OBJECT_NAME": "STARLINK-5933",
    "OBJECT_ID": "23037AZ",
    "EPOCH": "2025-11-11T02:41:53.612448",
    "MEAN_MOTION": 14.98340144,
    "ECCENTRICITY": 0.0002927,
    "INCLINATION": 69.9993,
    "RA_OF_ASC_NODE": 203.3419,
    "ARG_OF_PERICENTER": 271.8894,
    "MEAN_ANOMALY": 88.193,
    "EPHEMERIS_TYPE": 0,
    "CLASSIFICATION_TYPE": "U",
    "NORAD_CAT_ID": 55961,
    "ELEMENT_SET_NO": 999,
    "REV_AT_EPOCH": 14671,
    "BSTAR": 0.00015606000000000002,
    "MEAN_MOTION_DOT": 1.77e-05,
    "MEAN_MOTION_DDOT": 0.0,
    "TLE_LINE1": "1 55961U 23037AZ  25315.11242607  .00001770  00000+0  15606-3 0  9995",
    "TLE_LINE2": "2 55961  69.9993 203.3419 0002927 271.8894  88.1930 14.98340144146710",
    "COMMENT": "Grouped by shell and plane from TLE"
  },
  {
    "OBJECT_NAME": "STARLINK-5906",
    "OBJECT_ID": "23037BA",
    "EPOCH": "2025-11-11T03:35:59.637120",
    "MEAN_MOTION": 14.98335851,
    "ECCENTRICITY": 0.0003034,
    "INCLINATION": 69.9996,
    "RA_OF_ASC_NODE": 203.4677,
    "ARG_OF_PERICENTER": 276.1755,
    "MEAN_ANOMALY": 83.9058,
    "EPHEMERIS_TYPE": 0,
    "CLASSIFICATION_TYPE": "U",
    "NORAD_CAT_ID": 55962,
    "ELEMENT_SET_NO": 999,
    "REV_AT_EPOCH": 14671,
    "BSTAR": 0.00019554,
    "MEAN_MOTION_DOT": 2.241e-05,
    "MEAN_MOTION_DDOT": 0.0,
    "TLE_LINE1": "1 55962U 23037BA  25315.14999580  .00002241  00000+0  19554-3 0  9998",
    "TLE_LINE2": "2 55962  69.9996 203.4677 0003034 276.1755  83.9058 14.98335851146718",
    "COMMENT": "Grouped by shell and plane from TLE"
  },
  {
    "OBJECT_NAME": "STARLINK-5924",
    "OBJECT_ID": "23037BB",
    "EPOCH": "2025-11-11T02:53:55.004064",
    "MEAN_MOTION": 14.98340314,
    "ECCENTRICITY": 0.0002472,
    "INCLINATION": 69.9993,
    "RA_OF_ASC_NODE": 203.3724,
    "ARG_OF_PERICENTER": 273.1468,
    "MEAN_ANOMALY": 86.9408,
    "EPHEMERIS_TYPE": 0,
    "CLASSIFICATION_TYPE": "U",
    "NORAD_CAT_ID": 55963,
    "ELEMENT_SET_NO": 999,
    "REV_AT_EPOCH": 14671,
    "BSTAR": 0.00023065,
    "MEAN_MOTION_DOT": 2.661e-05,
    "MEAN_MOTION_DDOT": 0.0,
    "TLE_LINE1": "1 55963U 23037BB  25315.12077551  .00002661  00000+0  23065-3 0  9990",
    "TLE_LINE2": "2 55963  69.9993 203.3724 0002472 273.1468  86.9408 14.98340314146713",
    "COMMENT": "Grouped by shell and plane from TLE"
  },
  {
    "OBJECT_NAME": "STARLINK-5895",
    "OBJECT_ID": "23037BC",
    "EPOCH": "2025-11-11T01:54:52.949664",
    "MEAN_MOTION": 15.02532103,
    "ECCENTRICITY": 0.0001786,
    "INCLINATION": 69.9983,
    "RA_OF_ASC_NODE": 202.77,
    "ARG_OF_PERICENTER": 255.9787,
    "MEAN_ANOMALY": 104.1176,
    "EPHEMERIS_TYPE": 0,
    "CLASSIFICATION_TYPE": "U",
    "NORAD_CAT_ID": 55964,
    "ELEMENT_SET_NO": 999,
    "REV_AT_EPOCH": 14672,
    "BSTAR": 0.0018524,
    "MEAN_MOTION_DOT": 0.00024656,
    "MEAN_MOTION_DDOT": 0.0,
    "TLE_LINE1": "1 55964U 23037BC  25315.07977951  .00024656  00000+0  18524-2 0  9999",
    "TLE_LINE2": "2 55964  69.9983 202.7700 0001786 255.9787 104.1176 15.02532103146720",
    "COMMENT": "Grouped by shell and plane from TLE"
  },
  {
    "OBJECT_NAME": "STARLINK-5894",
    "OBJECT_ID": "23037BD",
    "EPOCH": "2025-11-11T02:29:52.791072",
    "MEAN_MOTION": 14.98336768,
    "ECCENTRICITY": 0.0002881,
    "INCLINATION": 69.9993,
    "RA_OF_ASC_NODE": 203.3132,
    "ARG_OF_PERICENTER": 272.4208,
    "MEAN_ANOMALY": 87.6622,
    "EPHEMERIS_TYPE": 0,
    "CLASSIFICATION_TYPE": "U",
    "NORAD_CAT_ID": 55965,
    "ELEMENT_SET_NO": 999,
    "REV_AT_EPOCH": 14671,
    "BSTAR": 0.00010301,
    "MEAN_MOTION_DOT": 1.137e-05,
    "MEAN_MOTION_DDOT": 0.0,
    "TLE_LINE1": "1 55965U 23037BD  25315.10408323  .00001137  00000+0  10301-3 0  9991",
    "TLE_LINE2": "2 55965  69.9993 203.3132 0002881 272.4208  87.6622 14.98336768146710",
    "COMMENT": "Grouped by shell and plane from TLE"
  },
  {
    "OBJECT_NAME": "STARLINK-30864",
    "OBJECT_ID": "23171P",
    "EPOCH": "2025-11-11T02:50:10.508352",
    "MEAN_MOTION": 15.02567046,
    "ECCENTRICITY": 9.01e-05,
    "INCLINATION": 43.0014,
    "RA_OF_ASC_NODE": 209.9061,
    "ARG_OF_PERICENTER": 271.8458,
    "MEAN_ANOMALY": 88.2281,
    "EPHEMERIS_TYPE": 0,
    "CLASSIFICATION_TYPE": "U",
    "NORAD_CAT_ID": 58243,
    "ELEMENT_SET_NO": 999,
    "REV_AT_EPOCH": 11179,
    "BSTAR": 0.00030664,
    "MEAN_MOTION_DOT": 3.944e-05,
    "MEAN_MOTION_DDOT": 0.0,
    "TLE_LINE1": "1 58243U 23171P   25315.11817718  .00003944  00000+0  30664-3 0  9997",
    "TLE_LINE2": "2 58243  43.0014 209.9061 0000901 271.8458  88.2281 15.02567046111792",
    "COMMENT": "Grouped by shell and plane from TLE"
  }
]